QIANFAN-57              
1 62787U 25016C   25321.42107838  .00000135  00000+0  19082-3 0  9991
2 62787  88.9763 105.8101 0001323 127.3226 232.8046 13.50980226 43784
QIANFAN-58              
1 62788U 25016D   25321.46632036  .00000142  00000+0  20146-3 0  9990
2 62788  88.9734 105.6448 0015138  60.5960 299.6700 13.50979983 43839
QIANFAN-59              
1 62789U 25016E   25321.49100917  .00000129  00000+0  18069-3 0  9998
2 62789  88.9757 105.7099 0015586  63.8888 296.3865 13.50979424 43836
QIANFAN-60              
1 62790U 25016F   25321.45005154  .00000063  00000+0  78078-4 0  9997
2 62790  88.9739 105.6905 0017051  60.4996 299.7853 13.50976226 43814
QIANFAN-61              
1 62791U 25016G   25321.48277519  .00000131  00000+0  18467-3 0  9998
2 62791  88.9805 105.8328 0015987  59.9967 300.2769 13.50973397 43839
QIANFAN-62              
1 62792U 25016H   25321.48697760  .00000128  00000+0  18003-3 0  9995
2 62792  88.9752 105.7145 0017368  60.0216 300.2656 13.50983304 43825
QIANFAN-63              
1 62793U 25016J   25321.43759895  .00000143  00000+0  20256-3 0  9999
2 62793  88.9758 105.6694 0017508  65.0763 295.2206 13.50976396 43858
QIANFAN-64              
1 62794U 25016K   25321.47868677  .00000128  00000+0  18011-3 0  9992
2 62794  88.9745 105.6426 0015336  58.9649 301.3006 13.50978225 43859
